{"type": "FeatureCollection", "features": [ {"type": "Feature", "properties": {"norad_id": 34634, "name": "COSMOS 2251 DEB", "group": "cosmos-2251-debris", "lat": 2.9992517781792905, "lon": 36.45721942442002, "alt_km": 733.3505119354877, "timestamp": "2025-12-12T09:49:09.126870+00:00", "meta": {"OBJECT_NAME": "COSMOS 2251 DEB", "OBJECT_ID": "1993-036XF", "EPOCH": "2025-12-12T03:20:54.083904", "MEAN_MOTION": 14.55656438, "ECCENTRICITY": 0.0044187, "INCLINATION": 74.0528, "RA_OF_ASC_NODE": 36.109, "ARG_OF_PERICENTER": 143.6865, "MEAN_ANOMALY": 247.5552, "EPHEMERIS_TYPE": 0, "CLASSIFICATION_TYPE": "U", "NORAD_CAT_ID": 34634, "ELEMENT_SET_NO": 999, "REV_AT_EPOCH": 88773, "BSTAR": 0.00053306, "MEAN_MOTION_DOT": 2.33e-05, "MEAN_MOTION_DDOT": 0}, "tle": {"line1": "1 34634U 93036XF  25346.13951486  .00002330  00000+0  53306-3 0  9995", "line2": "2 34634  74.0528  36.1090 0044187 143.6865 247.5552 14.55656438887734"}}, "geometry": {"type": "Point", "coordinates": [36.45721942442002, 2.9992517781792905]}}, {"type": "Feature", "properties": {"norad_id": 34635, "name": "COSMOS 2251 DEB", "group": "cosmos-2251-debris", "lat": -29.418154054688237, "lon": -99.36190292589669, "alt_km": 665.316856768256, "timestamp": "2025-12-12T09:49:09.126881+00:00", "meta": {"OBJECT_NAME": "COSMOS 2251 DEB", "OBJECT_ID": "1993-036XG", "EPOCH": "2025-12-11T07:02:00.335616", "MEAN_MOTION": 14.68239511, "ECCENTRICITY": 0.0028691, "INCLINATION": 74.0452, "RA_OF_ASC_NODE": 73.5104, "ARG_OF_PERICENTER": 142.6911, "MEAN_ANOMALY": 290.804, "EPHEMERIS_TYPE": 0, "CLASSIFICATION_TYPE": "U", "NORAD_CAT_ID": 34635, "ELEMENT_SET_NO": 999, "REV_AT_EPOCH": 73198, "BSTAR": 0.0026080187, "MEAN_MOTION_DOT": 0.00015126, "MEAN_MOTION_DDOT": 0}, "tle": {"line1": "1 34635U 93036XG  25345.29305944  .00015126  00000+0  26080-2 0  9999", "line2": "2 34635  74.0452  73.5104 0028691 142.6911 290.8040 14.68239511731986"}}, "geometry": {"type": "Point", "coordinates": [-99.36190292589669, -29.418154054688237]}}, {"type": "Feature", "properties": {"norad_id": 34637, "name": "COSMOS 2251 DEB", "group": "cosmos-2251-debris", "lat": 46.98741138826278, "lon": 119.64057576005891, "alt_km": 707.3457926444562, "timestamp": "2025-12-12T09:49:09.126891+00:00", "meta": {"OBJECT_NAME": "COSMOS 2251 DEB", "OBJECT_ID": "1993-036XJ", "EPOCH": "2025-12-11T10:55:13.914624", "MEAN_MOTION": 14.60079647, "ECCENTRICITY": 0.00499195, "INCLINATION": 74.0487, "RA_OF_ASC_NODE": 103.6062, "ARG_OF_PERICENTER": 174.409, "MEAN_ANOMALY": 262.6034, "EPHEMERIS_TYPE": 0, "CLASSIFICATION_TYPE": "U", "NORAD_CAT_ID": 34637, "ELEMENT_SET_NO": 999, "REV_AT_EPOCH": 88508, "BSTAR": 0.0019671957, "MEAN_MOTION_DOT": 9.607e-05, "MEAN_MOTION_DDOT": 0}, "tle": {"line1": "1 34637U 93036XJ  25345.45502216  .00009607  00000+0  19672-2 0  9996", "line2": "2 34637  74.0487 103.6062 0049919 174.4090 262.6034 14.60079647885086"}}, "geometry": {"type": "Point", "coordinates": [119.64057576005891, 46.98741138826278]}}, {"type": "Feature", "properties": {"norad_id": 34641, "name": "COSMOS 2251 DEB", "group": "cosmos-2251-debris", "lat": 47.91714876527914, "lon": 101.00898956520562, "alt_km": 706.8369829700796, "timestamp": "2025-12-12T09:49:09.126902+00:00", "meta": {"OBJECT_NAME": "COSMOS 2251 DEB", "OBJECT_ID": "1993-036XN", "EPOCH": "2025-12-11T09:06:36.556992", "MEAN_MOTION": 14.51989517, "ECCENTRICITY": 0.00181936, "INCLINATION": 73.8385, "RA_OF_ASC_NODE": 84.2398, "ARG_OF_PERICENTER": 358.956, "MEAN_ANOMALY": 72.0869, "EPHEMERIS_TYPE": 0, "CLASSIFICATION_TYPE": "U", "NORAD_CAT_ID": 34641, "ELEMENT_SET_NO": 999, "REV_AT_EPOCH": 88236, "BSTAR": 0.0020110528, "MEAN_MOTION_DOT": 8.121e-05, "MEAN_MOTION_DDOT": 0}, "tle": {"line1": "1 34641U 93036XN  25345.37958978  .00008121  00000+0  20111-2 0  9992", "line2": "2 34641  73.8385  84.2398 0018193 358.9560  72.0869 14.51989517882365"}}, "geometry": {"type": "Point", "coordinates": [101.00898956520562, 47.91714876527914]}}, {"type": "Feature", "properties": {"norad_id": 34642, "name": "COSMOS 2251 DEB", "group": "cosmos-2251-debris", "lat": -18.568383902797486, "lon": 165.9046576114044, "alt_km": 783.3048960189262, "timestamp": "2025-12-12T09:49:09.126913+00:00", "meta": {"OBJECT_NAME": "COSMOS 2251 DEB", "OBJECT_ID": "1993-036XP", "EPOCH": "2025-12-10T11:16:39.296928", "MEAN_MOTION": 13.98964055, "ECCENTRICITY": 0.02073989, "INCLINATION": 74.0053, "RA_OF_ASC_NODE": 343.733, "ARG_OF_PERICENTER": 164.1427, "MEAN_ANOMALY": 350.8698, "EPHEMERIS_TYPE": 0, "CLASSIFICATION_TYPE": "U", "NORAD_CAT_ID": 34642, "ELEMENT_SET_NO": 999, "REV_AT_EPOCH": 85261, "BSTAR": 0.0012238481, "MEAN_MOTION_DOT": 2.102e-05, "MEAN_MOTION_DDOT": 0}, "tle": {"line1": "1 34642U 93036XP  25344.46989927  .00002102  00000+0  12238-2 0  9994", "line2": "2 34642  74.0053 343.7330 0207398 164.1427 350.8698 13.98964055852618"}}, "geometry": {"type": "Point", "coordinates": [165.9046576114044, -18.568383902797486]}}, {"type": "Feature", "properties": {"norad_id": 34671, "name": "COSMOS 2251 DEB", "group": "cosmos-2251-debris", "lat": 41.208620179838405, "lon": -59.592120591843944, "alt_km": 665.6058412770308, "timestamp": "2025-12-12T09:49:09.126923+00:00", "meta": {"OBJECT_NAME": "COSMOS 2251 DEB", "OBJECT_ID": "1993-036XR", "EPOCH": "2025-12-12T03:10:56.253792", "MEAN_MOTION": 14.66920812, "ECCENTRICITY": 0.0011467, "INCLINATION": 74.0268, "RA_OF_ASC_NODE": 135.4679, "ARG_OF_PERICENTER": 215.5537, "MEAN_ANOMALY": 261.4636, "EPHEMERIS_TYPE": 0, "CLASSIFICATION_TYPE": "U", "NORAD_CAT_ID": 34671, "ELEMENT_SET_NO": 999, "REV_AT_EPOCH": 88288, "BSTAR": 0.0026529, "MEAN_MOTION_DOT": 0.00014858, "MEAN_MOTION_DDOT": 0}, "tle": {"line1": "1 34671U 93036XR  25346.13259553  .00014858  00000+0  26529-2 0  9996", "line2": "2 34671  74.0268 135.4679 0011467 215.5537 261.4636 14.66920812882883"}}, "geometry": {"type": "Point", "coordinates": [-59.592120591843944, 41.208620179838405]}}, {"type": "Feature", "properties": {"norad_id": 34672, "name": "COSMOS 2251 DEB", "group": "cosmos-2251-debris", "lat": -7.459515784119792, "lon": -55.95155094291614, "alt_km": 758.6975164736759, "timestamp": "2025-12-12T09:49:09.126934+00:00", "meta": {"OBJECT_NAME": "COSMOS 2251 DEB", "OBJECT_ID": "1993-036XS", "EPOCH": "2025-12-11T16:16:44.249952", "MEAN_MOTION": 14.36406242, "ECCENTRICITY": 0.00236356, "INCLINATION": 74.0334, "RA_OF_ASC_NODE": 307.539, "ARG_OF_PERICENTER": 19.6523, "MEAN_ANOMALY": 155.1005, "EPHEMERIS_TYPE": 0, "CLASSIFICATION_TYPE": "U", "NORAD_CAT_ID": 34672, "ELEMENT_SET_NO": 999, "REV_AT_EPOCH": 65162, "BSTAR": 0.00043649208, "MEAN_MOTION_DOT": 1.257e-05, "MEAN_MOTION_DDOT": 0}, "tle": {"line1": "1 34672U 93036XS  25345.67828993  .00001257  00000+0  43649-3 0  9997", "line2": "2 34672  74.0334 307.5390 0023635  19.6523 155.1005 14.36406242651626"}}, "geometry": {"type": "Point", "coordinates": [-55.95155094291614, -7.459515784119792]}}, {"type": "Feature", "properties": {"norad_id": 34678, "name": "COSMOS 2251 DEB", "group": "cosmos-2251-debris", "lat": -3.166862072717804, "lon": -172.79808345279872, "alt_km": 805.1726263500104, "timestamp": "2025-12-12T09:49:09.126944+00:00", "meta": {"OBJECT_NAME": "COSMOS 2251 DEB", "OBJECT_ID": "1993-036XY", "EPOCH": "2025-12-11T21:32:14.673120", "MEAN_MOTION": 14.30064834, "ECCENTRICITY": 0.0024399, "INCLINATION": 74.0379, "RA_OF_ASC_NODE": 7.2245, "ARG_OF_PERICENTER": 56.6217, "MEAN_ANOMALY": 12.8251, "EPHEMERIS_TYPE": 0, "CLASSIFICATION_TYPE": "U", "NORAD_CAT_ID": 34678, "ELEMENT_SET_NO": 999, "REV_AT_EPOCH": 87367, "BSTAR": 4.2937e-05, "MEAN_MOTION_DOT": 8.6e-07, "MEAN_MOTION_DDOT": 0}, "tle": {"line1": "1 34678U 93036XY  25345.89739205  .00000086  00000+0  42937-4 0  9993", "line2": "2 34678  74.0379   7.2245 0024399  56.6217  12.8251 14.30064834873677"}}, "geometry": {"type": "Point", "coordinates": [-172.79808345279872, -3.166862072717804]}}, {"type": "Feature", "properties": {"norad_id": 34680, "name": "COSMOS 2251 DEB", "group": "cosmos-2251-debris", "lat": 63.465586131999515, "lon": 165.4506017318394, "alt_km": 689.076440954278, "timestamp": "2025-12-12T09:49:09.126954+00:00", "meta": {"OBJECT_NAME": "COSMOS 2251 DEB", "OBJECT_ID": "1993-036YA", "EPOCH": "2025-12-11T21:03:28.656000", "MEAN_MOTION": 14.60608857, "ECCENTRICITY": 0.0006749, "INCLINATION": 74.0425, "RA_OF_ASC_NODE": 131.5036, "ARG_OF_PERICENTER": 228.2875, "MEAN_ANOMALY": 285.5668, "EPHEMERIS_TYPE": 0, "CLASSIFICATION_TYPE": "U", "NORAD_CAT_ID": 34680, "ELEMENT_SET_NO": 999, "REV_AT_EPOCH": 88315, "BSTAR": 0.0019557, "MEAN_MOTION_DOT": 9.498e-05, "MEAN_MOTION_DDOT": 0}, "tle": {"line1": "1 34680U 93036YA  25345.87741500  .00009498  00000+0  19557-2 0  9991", "line2": "2 34680  74.0425 131.5036 0006749 228.2875 285.5668 14.60608857883154"}}, "geometry": {"type": "Point", "coordinates": [165.4506017318394, 63.465586131999515]}}, {"type": "Feature", "properties": {"norad_id": 34681, "name": "COSMOS 2251 DEB", "group": "cosmos-2251-debris", "lat": -74.05210126394316, "lon": -159.2337760843854, "alt_km": 622.2986552935145, "timestamp": "2025-12-12T09:49:09.126965+00:00", "meta": {"OBJECT_NAME": "COSMOS 2251 DEB", "OBJECT_ID": "1993-036YB", "EPOCH": "2025-12-11T23:12:41.760000", "MEAN_MOTION": 14.83187655, "ECCENTRICITY": 0.0025596, "INCLINATION": 74.0625, "RA_OF_ASC_NODE": 291.9234, "ARG_OF_PERICENTER": 348.514, "MEAN_ANOMALY": 82.7144, "EPHEMERIS_TYPE": 0, "CLASSIFICATION_TYPE": "U", "NORAD_CAT_ID": 34681, "ELEMENT_SET_NO": 999, "REV_AT_EPOCH": 89259, "BSTAR": 0.0022385, "MEAN_MOTION_DOT": 0.00018397, "MEAN_MOTION_DDOT": 0}, "tle": {"line1": "1 34681U 93036YB  25345.96715000  .00018397  00000+0  22385-2 0  9999", "line2": "2 34681  74.0625 291.9234 0025596 348.5140  82.7144 14.83187655892597"}}, "geometry": {"type": "Point", "coordinates": [-159.2337760843854, -74.05210126394316]}}]}